DELTA 2 R/B(1)          
1 20453U 90008B   26051.03615638  .00059819  00000+0  76331-3 0  9991
2 20453  35.6041 290.4831 0089079  93.9818 267.1105 15.53431371923383
COSMOS 2058             
1 20465U 90010A   26051.10170137  .00003728  00000+0  22043-3 0  9994
2 20465  82.4661  64.7546 0010756  43.1898 317.0174 15.11151289939581
SL-14 R/B               
1 20466U 90010B   26051.08325664  .00000352  00000+0  39693-4 0  9999
2 20466  82.5008 283.9296 0019876   2.4396 357.6912 14.83552908925876
SL-14 R/B               
1 20511U 90018B   26051.01659903  .00000415  00000+0  49136-4 0  9990
2 20511  82.5179 239.6111 0017099 146.1100 214.1211 14.82124212919968
HST                     
1 20580U 90037B   26050.67088489  .00006837  00000+0  22680-3 0  9991
2 20580  28.4684 162.8909 0001061 272.1045  87.9429 15.29177707770552
SL-16 R/B               
1 20625U 90046B   26051.09495875  .00000212  00000+0  13387-3 0  9994
2 20625  71.0018 334.8648 0015490 323.9990  36.0088 14.15013728845907
COSMOS 2084             
1 20663U 90055A   26051.12138679  .00002378  00000+0  17782-3 0  9994
2 20663  62.7905  35.4898 0019798 186.0689 174.0175 15.05527947933675
SL-6 R/B(2)             
1 20666U 90055D   26051.08018884  .00001950  00000+0  15621-3 0  9992
2 20666  62.7839 313.7316 0022125 342.4074  17.6256 15.03503984935548
SL-8 R/B                
1 20775U 90078B   26051.03346463  .00012275  00000+0  35976-3 0  9997
2 20775  82.9000 267.1835 0365840  73.1970 290.9038 14.88443615806679
SL-8 R/B                
1 21088U 91006B   26050.91234993  .00000032  00000+0  16709-4 0  9999
2 21088  82.9451 183.2614 0023739  85.8529  31.6020 13.77492419761627
OKEAN-3                 
1 21397U 91039A   26050.85735061  .00003742  00000+0  26355-3 0  9991
2 21397  82.5210 354.1140 0015458  36.3465 323.8808 15.04664937862351
COSMOS 2151             
1 21422U 91042A   26051.13980809  .00001650  00000+0  13022-3 0  9991
2 21422  82.4946 100.6080 0013976 116.2417 244.0245 15.00033704860568
