CCSDS_OMM_VERS = 2.0
CREATION_DATE  = 
ORIGINATOR     = 

OBJECT_NAME    = DELTA 2 R/B(1)
OBJECT_ID      = 1990-008B
CENTER_NAME    = EARTH
REF_FRAME      = TEME
TIME_SYSTEM    = UTC
MEAN_ELEMENT_THEORY = SGP/SGP4

EPOCH          = 2026-02-20T00:52:03.911232
MEAN_MOTION    = 15.53431371
ECCENTRICITY   = .0089079
INCLINATION    = 35.6041
RA_OF_ASC_NODE = 290.4831
ARG_OF_PERICENTER = 93.9818
MEAN_ANOMALY   = 267.1105

EPHEMERIS_TYPE = 0
CLASSIFICATION_TYPE = U
NORAD_CAT_ID   = 20453
ELEMENT_SET_NO = 999
REV_AT_EPOCH   = 92338
BSTAR          = .76331E-3
MEAN_MOTION_DOT = .59819E-3
MEAN_MOTION_DDOT = 0

CCSDS_OMM_VERS = 2.0
CREATION_DATE  = 
ORIGINATOR     = 

OBJECT_NAME    = COSMOS 2058
OBJECT_ID      = 1990-010A
CENTER_NAME    = EARTH
REF_FRAME      = TEME
TIME_SYSTEM    = UTC
MEAN_ELEMENT_THEORY = SGP/SGP4

EPOCH          = 2026-02-20T02:26:26.998368
MEAN_MOTION    = 15.11151289
ECCENTRICITY   = .0010756
INCLINATION    = 82.4661
RA_OF_ASC_NODE = 64.7546
ARG_OF_PERICENTER = 43.1898
MEAN_ANOMALY   = 317.0174

EPHEMERIS_TYPE = 0
CLASSIFICATION_TYPE = U
NORAD_CAT_ID   = 20465
ELEMENT_SET_NO = 999
REV_AT_EPOCH   = 93958
BSTAR          = .22043E-3
MEAN_MOTION_DOT = .3728E-4
MEAN_MOTION_DDOT = 0

CCSDS_OMM_VERS = 2.0
CREATION_DATE  = 
ORIGINATOR     = 

OBJECT_NAME    = SL-14 R/B
OBJECT_ID      = 1990-010B
CENTER_NAME    = EARTH
REF_FRAME      = TEME
TIME_SYSTEM    = UTC
MEAN_ELEMENT_THEORY = SGP/SGP4

EPOCH          = 2026-02-20T01:59:53.373696
MEAN_MOTION    = 14.83552908
ECCENTRICITY   = .0019876
INCLINATION    = 82.5008
RA_OF_ASC_NODE = 283.9296
ARG_OF_PERICENTER = 2.4396
MEAN_ANOMALY   = 357.6912

EPHEMERIS_TYPE = 0
CLASSIFICATION_TYPE = U
NORAD_CAT_ID   = 20466
ELEMENT_SET_NO = 999
REV_AT_EPOCH   = 92587
BSTAR          = .39693E-4
MEAN_MOTION_DOT = .352E-5
MEAN_MOTION_DDOT = 0

CCSDS_OMM_VERS = 2.0
CREATION_DATE  = 
ORIGINATOR     = 

OBJECT_NAME    = SL-14 R/B
OBJECT_ID      = 1990-018B
CENTER_NAME    = EARTH
REF_FRAME      = TEME
TIME_SYSTEM    = UTC
MEAN_ELEMENT_THEORY = SGP/SGP4

EPOCH          = 2026-02-20T00:23:54.156192
MEAN_MOTION    = 14.82124212
ECCENTRICITY   = .0017099
INCLINATION    = 82.5179
RA_OF_ASC_NODE = 239.6111
ARG_OF_PERICENTER = 146.1100
MEAN_ANOMALY   = 214.1211

EPHEMERIS_TYPE = 0
CLASSIFICATION_TYPE = U
NORAD_CAT_ID   = 20511
ELEMENT_SET_NO = 999
REV_AT_EPOCH   = 91996
BSTAR          = .49136E-4
MEAN_MOTION_DOT = .415E-5
MEAN_MOTION_DDOT = 0

CCSDS_OMM_VERS = 2.0
CREATION_DATE  = 
ORIGINATOR     = 

OBJECT_NAME    = HST
OBJECT_ID      = 1990-037B
CENTER_NAME    = EARTH
REF_FRAME      = TEME
TIME_SYSTEM    = UTC
MEAN_ELEMENT_THEORY = SGP/SGP4

EPOCH          = 2026-02-19T16:06:04.454496
MEAN_MOTION    = 15.29177707
ECCENTRICITY   = .0001061
INCLINATION    = 28.4684
RA_OF_ASC_NODE = 162.8909
ARG_OF_PERICENTER = 272.1045
MEAN_ANOMALY   = 87.9429

EPHEMERIS_TYPE = 0
CLASSIFICATION_TYPE = U
NORAD_CAT_ID   = 20580
ELEMENT_SET_NO = 999
REV_AT_EPOCH   = 77055
BSTAR          = .2268E-3
MEAN_MOTION_DOT = .6837E-4
MEAN_MOTION_DDOT = 0

CCSDS_OMM_VERS = 2.0
CREATION_DATE  = 
ORIGINATOR     = 

OBJECT_NAME    = SL-16 R/B
OBJECT_ID      = 1990-046B
CENTER_NAME    = EARTH
REF_FRAME      = TEME
TIME_SYSTEM    = UTC
MEAN_ELEMENT_THEORY = SGP/SGP4

EPOCH          = 2026-02-20T02:16:44.436000
MEAN_MOTION    = 14.15013728
ECCENTRICITY   = .001549
INCLINATION    = 71.0018
RA_OF_ASC_NODE = 334.8648
ARG_OF_PERICENTER = 323.9990
MEAN_ANOMALY   = 36.0088

EPHEMERIS_TYPE = 0
CLASSIFICATION_TYPE = U
NORAD_CAT_ID   = 20625
ELEMENT_SET_NO = 999
REV_AT_EPOCH   = 84590
BSTAR          = .13387E-3
MEAN_MOTION_DOT = .212E-5
MEAN_MOTION_DDOT = 0

CCSDS_OMM_VERS = 2.0
CREATION_DATE  = 
ORIGINATOR     = 

OBJECT_NAME    = COSMOS 2084
OBJECT_ID      = 1990-055A
CENTER_NAME    = EARTH
REF_FRAME      = TEME
TIME_SYSTEM    = UTC
MEAN_ELEMENT_THEORY = SGP/SGP4

EPOCH          = 2026-02-20T02:54:47.818656
MEAN_MOTION    = 15.05527947
ECCENTRICITY   = .0019798
INCLINATION    = 62.7905
RA_OF_ASC_NODE = 35.4898
ARG_OF_PERICENTER = 186.0689
MEAN_ANOMALY   = 174.0175

EPHEMERIS_TYPE = 0
CLASSIFICATION_TYPE = U
NORAD_CAT_ID   = 20663
ELEMENT_SET_NO = 999
REV_AT_EPOCH   = 93367
BSTAR          = .17782E-3
MEAN_MOTION_DOT = .2378E-4
MEAN_MOTION_DDOT = 0

CCSDS_OMM_VERS = 2.0
CREATION_DATE  = 
ORIGINATOR     = 

OBJECT_NAME    = SL-6 R/B(2)
OBJECT_ID      = 1990-055D
CENTER_NAME    = EARTH
REF_FRAME      = TEME
TIME_SYSTEM    = UTC
MEAN_ELEMENT_THEORY = SGP/SGP4

EPOCH          = 2026-02-20T01:55:28.315776
MEAN_MOTION    = 15.03503984
ECCENTRICITY   = .0022125
INCLINATION    = 62.7839
RA_OF_ASC_NODE = 313.7316
ARG_OF_PERICENTER = 342.4074
MEAN_ANOMALY   = 17.6256

EPHEMERIS_TYPE = 0
CLASSIFICATION_TYPE = U
NORAD_CAT_ID   = 20666
ELEMENT_SET_NO = 999
REV_AT_EPOCH   = 93554
BSTAR          = .15621E-3
MEAN_MOTION_DOT = .195E-4
MEAN_MOTION_DDOT = 0

CCSDS_OMM_VERS = 2.0
CREATION_DATE  = 
ORIGINATOR     = 

OBJECT_NAME    = SL-8 R/B
OBJECT_ID      = 1990-078B
CENTER_NAME    = EARTH
REF_FRAME      = TEME
TIME_SYSTEM    = UTC
MEAN_ELEMENT_THEORY = SGP/SGP4

EPOCH          = 2026-02-20T00:48:11.344032
MEAN_MOTION    = 14.88443615
ECCENTRICITY   = .036584
INCLINATION    = 82.9000
RA_OF_ASC_NODE = 267.1835
ARG_OF_PERICENTER = 73.1970
MEAN_ANOMALY   = 290.9038

EPHEMERIS_TYPE = 0
CLASSIFICATION_TYPE = U
NORAD_CAT_ID   = 20775
ELEMENT_SET_NO = 999
REV_AT_EPOCH   = 80667
BSTAR          = .35976E-3
MEAN_MOTION_DOT = .12275E-3
MEAN_MOTION_DDOT = 0

CCSDS_OMM_VERS = 2.0
CREATION_DATE  = 
ORIGINATOR     = 

OBJECT_NAME    = SL-8 R/B
OBJECT_ID      = 1991-006B
CENTER_NAME    = EARTH
REF_FRAME      = TEME
TIME_SYSTEM    = UTC
MEAN_ELEMENT_THEORY = SGP/SGP4

EPOCH          = 2026-02-19T21:53:47.033952
MEAN_MOTION    = 13.77492419
ECCENTRICITY   = .0023739
INCLINATION    = 82.9451
RA_OF_ASC_NODE = 183.2614
ARG_OF_PERICENTER = 85.8529
MEAN_ANOMALY   = 31.6020

EPHEMERIS_TYPE = 0
CLASSIFICATION_TYPE = U
NORAD_CAT_ID   = 21088
ELEMENT_SET_NO = 999
REV_AT_EPOCH   = 76162
BSTAR          = .16709E-4
MEAN_MOTION_DOT = .32E-6
MEAN_MOTION_DDOT = 0

CCSDS_OMM_VERS = 2.0
CREATION_DATE  = 
ORIGINATOR     = 

OBJECT_NAME    = OKEAN-3
OBJECT_ID      = 1991-039A
CENTER_NAME    = EARTH
REF_FRAME      = TEME
TIME_SYSTEM    = UTC
MEAN_ELEMENT_THEORY = SGP/SGP4

EPOCH          = 2026-02-19T20:34:35.092704
MEAN_MOTION    = 15.04664937
ECCENTRICITY   = .0015458
INCLINATION    = 82.5210
RA_OF_ASC_NODE = 354.1140
ARG_OF_PERICENTER = 36.3465
MEAN_ANOMALY   = 323.8808

EPHEMERIS_TYPE = 0
CLASSIFICATION_TYPE = U
NORAD_CAT_ID   = 21397
ELEMENT_SET_NO = 999
REV_AT_EPOCH   = 86235
BSTAR          = .26355E-3
MEAN_MOTION_DOT = .3742E-4
MEAN_MOTION_DDOT = 0

CCSDS_OMM_VERS = 2.0
CREATION_DATE  = 
ORIGINATOR     = 

OBJECT_NAME    = COSMOS 2151
OBJECT_ID      = 1991-042A
CENTER_NAME    = EARTH
REF_FRAME      = TEME
TIME_SYSTEM    = UTC
MEAN_ELEMENT_THEORY = SGP/SGP4

EPOCH          = 2026-02-20T03:21:19.418976
MEAN_MOTION    = 15.00033704
ECCENTRICITY   = .0013976
INCLINATION    = 82.4946
RA_OF_ASC_NODE = 100.6080
ARG_OF_PERICENTER = 116.2417
MEAN_ANOMALY   = 244.0245

EPHEMERIS_TYPE = 0
CLASSIFICATION_TYPE = U
NORAD_CAT_ID   = 21422
ELEMENT_SET_NO = 999
REV_AT_EPOCH   = 86056
BSTAR          = .13022E-3
MEAN_MOTION_DOT = .165E-4
MEAN_MOTION_DDOT = 0

